# Made by eph2tle, compiled Dec 19 2021 16:19:15
# Run at Sun Dec 26 08:15:12 2021
#
#    The following TLEs (Two-Line Elements) were generated by fitting
# a numerically-integrated ephemeris,  based on the orbit given below,
# to the SDP4/SGP4 models.  Each TLE is good for the interval between
# its epoch and the epoch of the subsequent TLE (usually one day).
# The maximum deviation between the numerically integrated ephemerides
# and the TLE-based ephemeris, in kilometers,  is given for each TLE
# as the "worst residual".
#
#    This fitting is done using the 'eph2tle' code packaged with Find_Orb.
# The code has details on how the TLEs were computed :
#
#    https://github.com/Bill-Gray/find_orb/eph2tle.cpp
#
#    Be warned:  the error given is that between the numerically
# integrated ephems and the TLE model.  There will usually be at
# least some additional difference between the ephems and the actual
# motion of the satellite,  especially if the ephemerides are based
# on a short arc.  If the following orbital elements say something
# like "[based on] 10 observations 2015 Jan. 1-13",  and the TLEs
# are for 2015 May,  the extrapolation may be tenuous at best.  If
# your application requires a specific level of accuracy,  you may
# want to contact me;  I can give you some idea as to the fit of the
# underlying data (and possibly TLEs based on newer data).
#
#   You can usually find the underlying observational data,  and the
# fitted orbit,  residuals,  ephemerides,  and sometimes some comments
# about the object,  among the pages listed at
#
#    https://www.projectpluto.com/pluto/mpecs/pseudo.htm
#
#    WARNING:  for this object,  "normal" TLEs cannot be fitted.  (This
# usually means an object with an hyperbolic or nearly-parabolic orbit.)
# For this and similar cases,   an alternative model is used,  in which
# most of the traditional TLE data is replaced by six signed 8-digit hex
# numbers.  These six numbers are a state vector,  numerically integrated
# using a simplified force model.  This is necessary for objects at L2 or
# L1,  and sometimes for objects in high orbits where the SDP4/SGP4 model
# fails.  I'll be posting source code for this.  But be aware:  it's my
# own extension,  doesn't work with other code,  and is therefore used
# only when necessary.
#
#    Also,  if you use a TLE outside the "correct" time range (between
# its MJD and that of the next TLE),  all bets are off.  I've carefully
# computed and minimized the worst error over the "correct" time frame,
# but the ephemeris may (or may not) diverge wildly outside of it.
#
# Ephem range: 59573.000000 59670.000000 1.000000
# Created Sun Dec 26 08:14:41 2021
# Ephemeris start: 25 Dec 2021  0:00:00
# Ephemeris end:    1 Apr 2022  0:00:00
# Times are all TDT
# Positions/velocities are in equatorial J2000
# Orbital elements:  JWST Booster
#    Perigee 2021 Dec 25.527566 +/- 5.3e-5 TT = 12:39:41.6 (JD 2459574.027566)
# Epoch 2021 Dec 26.0 TT = JDT 2459574.5                        Find_Orb
# M   1.267170214 +/- 0.008           (J2000 equator)
# n   2.682215840 +/- 0.0184          Peri.  191.971711 +/- 0.0050
# a   0.007401997 +/- 3.39e-5         Node    89.026978 +/- 0.006
# e   0.99396764 +/- 2.82e-5          Incl.    4.196309 +/- 0.00017
# P 134.21d                  H 27.2   G  0.15   U 10.1
# q 6679.770964 +/- 1.07    Q 0.014759343 +/- 6.78e-5
# 27 of 29 observations 2021 Dec. 25-26 (6.2 hr); mean residual 0".346
#
# 1 NoradU COSPAR   Epoch.epoch     dn/dt/2  d2n/dt2/6 BSTAR    T El# C
# 2 NoradU Inclina RAAscNode Eccent  ArgPeri MeanAno  MeanMotion Rev# C

# Worst residual: 0.69 km
# MJD 59573.000000 (2021 Dec 25  0:00)
JWST Booster
1 50464U 21130B   21359.99919926 +000IXE75 +0026KZWE -0001A0B7H 14566
2 50464                          +0000365A +000DZ5V9 +00000800     07

# Worst residual: 0.69 km
# MJD 59574.000000 (2021 Dec 26  0:00)
JWST Booster
1 50464U 21130B   21359.99919926 +000IXE75 +0026KZWE -0001A0B7H 14566
2 50464                          +0000365A +000DZ5V9 +00000800     07

# Worst residual: 0.92 km
# MJD 59575.000000 (2021 Dec 27  0:00)
JWST Booster
1 50464U 21130B   21360.99919926 +000EYH9A +004TASLB -0000W66XH 14565
2 50464                          -0000OZEU +00094YUG +000028MV     05

# Worst residual: 0.96 km
# MJD 59576.000000 (2021 Dec 28  0:00)
JWST Booster
1 50464U 21130B   21361.99919926 +0008G5FL +006S6BM4 -0000AIZMH 14560
2 50464                          -0000SB7O +0007GJ4H +00002QE7     09

# Worst residual: 0.72 km
# MJD 59577.000000 (2021 Dec 29  0:00)
JWST Booster
1 50464U 21130B   21362.99919926 +0001L73G +008G6M3M +0000EYNWH 14569
2 50464                          -0000SMSQ +0006I4UB +000036DN     01

# Worst residual: 0.49 km
# MJD 59578.000000 (2021 Dec 30  0:00)
JWST Booster
1 50464U 21130B   21363.99919926 -00058LL7 +009XG0MN +00018MYNH 14561
2 50464                          -0000S7D0 +0005V1HY +00003PKB     08

# Worst residual: 0.39 km
# MJD 59579.000000 (2021 Dec 31  0:00)
JWST Booster
1 50464U 21130B   21364.99919926 -000BXS0X +00B9Z63R +00027EA5H 14566
2 50464                          -0000RMBD +0005E6XW +00004CRH     07

# Worst residual: 0.25 km
# MJD 59580.000000 (2022 Jan  1  0:00)
JWST Booster
1 50464U 21130B   21365.99919926 -000II4A8 +00CIYVNT +0003C6QOH 14566
2 50464                          -0000R3XE +000519OB +000053QQ     08

# Worst residual: 0.41 km
# MJD 59581.000000 (2022 Jan  2  0:00)
JWST Booster
1 50464U 21130B   22001.99919926 -000OYRVD +00DP745J +0004NU7PH 14560
2 50464                          -0000QS0O +0004R08Z +00005XSU     09

# Worst residual: 0.50 km
# MJD 59582.000000 (2022 Jan  3  0:00)
JWST Booster
1 50464U 21130B   22002.99919926 -000VDJ3R +00ET7ANM +00066ZCYH 14566
2 50464                          -0000QO8O +0004IMUX +00006U00     00

# Worst residual: 0.42 km
# MJD 59583.000000 (2022 Jan  4  0:00)
JWST Booster
1 50464U 21130B   22003.99919926 -0011SE42 +00FVDEI2 +0007Y0BLH 14562
2 50464                          -0000QSUL +0004BN4C +00007RC3     00

# Worst residual: 0.36 km
# MJD 59584.000000 (2022 Jan  5  0:00)
JWST Booster
1 50464U 21130B   22004.99919926 -00189AVT +00GVZQM7 +0009X2WWH 14562
2 50464                          -0000R55C +00045OCJ +00008OWQ     09

# Worst residual: 0.31 km
# MJD 59585.000000 (2022 Jan  6  0:00)
JWST Booster
1 50464U 21130B   22005.99919926 -001ETYS6 +00HVA1NW +000C461XH 14566
2 50464                          -0000RNW0 +00040HN0 +00009M1C     06

# Worst residual: 0.19 km
# MJD 59586.000000 (2022 Jan  7  0:00)
JWST Booster
1 50464U 21130B   22006.99919926 -001LJR9P +00ITE9H7 +000EJ3V7H 14564
2 50464                          -0000SBMO +0003VWQD +0000AIAJ     05

# Worst residual: 0.16 km
# MJD 59587.000000 (2022 Jan  8  0:00)
JWST Booster
1 50464U 21130B   22007.99919926 -001SFPHU +00JQH2AU +000H5NTAH 14567
2 50464                          -0000T2ZV +0003RT83 +0000BDH6     04

# Worst residual: 0.28 km
# MJD 59588.000000 (2022 Jan  9  0:00)
JWST Booster
1 50464U 21130B   22008.99919926 -001ZIJK4 +00KMM884 +000JZKEUH 14565
2 50464                          -0000TWTG +0003O3ZV +0000C7K7     02

# Worst residual: 0.45 km
# MJD 59589.000000 (2022 Jan 10  0:00)
JWST Booster
1 50464U 21130B   22009.99919926 -0026SQHE +00LHWWF5 +000N0KFJH 14564
2 50464                          -0000US5Y +0003KQT0 +0000D0ME     00

# Worst residual: 0.67 km
# MJD 59590.000000 (2022 Jan 11  0:00)
JWST Booster
1 50464U 21130B   22010.99919926 -002EAK8M +00MCFRFZ +000Q8FL0H 14561
2 50464                          -0000VOBU +0003HO0E +0000DSSL     05

# Worst residual: 0.80 km
# MJD 59591.000000 (2022 Jan 12  0:00)
JWST Booster
1 50464U 21130B   22011.99919926 -002M05H1 +00N695MB +000TMYVPH 14562
2 50464                          -0000WKRZ +0003EUEF +0000EK8N     03

# Worst residual: 0.86 km
# MJD 59592.000000 (2022 Jan 13  0:00)
JWST Booster
1 50464U 21130B   22012.99919926 -002TXIU8 +00NZF692 +000X80SNH 14560
2 50464                          -0000XH40 +0003C934 +0000FB4T     09

# Worst residual: 0.88 km
# MJD 59593.000000 (2022 Jan 14  0:00)
JWST Booster
1 50464U 21130B   22013.99919926 -00322LZU +00ORZQ5M +0010ZHCEH 14569
2 50464                          -0000YD15 +00039VG3 +0000G1NQ     04

# Worst residual: 0.92 km
# MJD 59594.000000 (2022 Jan 15  0:00)
JWST Booster
1 50464U 21130B   22014.99919926 -003AFACL +00PK0LSQ +0014XA65H 14566
2 50464                          -0000Z8BC +00037P39 +0000GS0E     02

# Worst residual: 1.00 km
# MJD 59595.000000 (2022 Jan 16  0:00)
JWST Booster
1 50464U 21130B   22015.99919926 -003IZDOK +00QBJJ4Y +00191EOYH 14566
2 50464                          -000102T2 +00035PTN +0000HIEL     05

# Worst residual: 1.11 km
# MJD 59596.000000 (2022 Jan 17  0:00)
JWST Booster
1 50464U 21130B   22016.99919926 -003RQOS0 +00R2M75Q +001DBWBOH 14567
2 50464                          -00010WFO +00033XLU +0000I938     09

# Worst residual: 1.24 km
# MJD 59597.000000 (2022 Jan 18  0:00)
JWST Booster
1 50464U 21130B   22017.99919926 -0040P07Q +00RTAB1K +001HSUR3H 14566
2 50464                          -00011P8A +00032CIL +0000J0CD     07

# Worst residual: 1.37 km
# MJD 59598.000000 (2022 Jan 19  0:00)
JWST Booster
1 50464U 21130B   22018.99919926 -0049U5FB +00SJLKYE +001MGG7UH 14567
2 50464                          -00012HD4 +00030YP4 +0000JSH5     01

# Worst residual: 1.48 km
# MJD 59599.000000 (2022 Jan 20  0:00)
JWST Booster
1 50464U 21130B   22019.99919926 -004J601G +00T9LSGV +001RAXPGH 14563
2 50464                          -0001396E +0002ZSBQ +0000KLT8     01

# Worst residual: 1.57 km
# MJD 59600.000000 (2022 Jan 21  0:00)
JWST Booster
1 50464U 21130B   22020.99919926 -004SOJF4 +00TZCQNH +001WCN00H 14563
2 50464                          -00014170 +0002YTKC +0000LGO2     09

# Worst residual: 1.67 km
# MJD 59601.000000 (2022 Jan 22  0:00)
JWST Booster
1 50464U 21130B   22021.99919926 -0052DW9F +00UOW9TS +0021LYJHH 14563
2 50464                          -00014U4I +0002Y2J8 +0000MDCA     03

